{
  "type": "FeatureCollection",
  "features": [
    {
      "type": "Feature",
      "properties": {
        "norad_id": 36744,
        "name": "COMS 1",
        "group": "weather",
        "lat": -2.9551907458428808,
        "lon": 35.28086859491262,
        "alt_km": 35788.11005795807,
        "timestamp": "2025-12-27T11:23:19.520403+00:00",
        "meta_object_name": "COMS 1",
        "meta_object_id": "2010-032A",
        "meta_epoch": "2025-12-25T12:42:15.782976",
        "meta_mean_motion": 1.00270082,
        "meta_eccentricity": 8.877e-05,
        "meta_inclination": 4.3689,
        "meta_ra_of_asc_node": 77.8525,
        "meta_arg_of_pericenter": 213.8569,
        "meta_mean_anomaly": 121.3153,
        "meta_ephemeris_type": 0,
        "meta_classification_type": "U",
        "meta_norad_cat_id": 36744,
        "meta_element_set_no": 999,
        "meta_rev_at_epoch": 4934,
        "meta_bstar": 0,
        "meta_mean_motion_dot": -3.24e-06,
        "meta_mean_motion_ddot": 0,
        "tle_line1": "1 36744U 10032A   25359.52934934 -.00000324  00000+0  00000+0 0  9991",
        "tle_line2": "2 36744   4.3689  77.8525 0000887 213.8569 121.3153  1.00270082 49343"
      },
      "geometry": {
        "type": "Point",
        "coordinates": [
          35.28086859491262,
          -2.9551907458428808
        ]
      }
    },
    {
      "type": "Feature",
      "properties": {
        "norad_id": 37214,
        "name": "FENGYUN 3B",
        "group": "weather",
        "lat": 18.71791894225068,
        "lon": -135.37265951165693,
        "alt_km": 857.1380368770115,
        "timestamp": "2025-12-27T11:23:19.520415+00:00",
        "meta_object_name": "FENGYUN 3B",
        "meta_object_id": "2010-059A",
        "meta_epoch": "2025-12-27T04:15:19.187424",
        "meta_mean_motion": 14.14794382,
        "meta_eccentricity": 0.0021412,
        "meta_inclination": 98.9888,
        "meta_ra_of_asc_node": 41.2538,
        "meta_arg_of_pericenter": 316.1912,
        "meta_mean_anomaly": 131.8401,
        "meta_ephemeris_type": 0,
        "meta_classification_type": "U",
        "meta_norad_cat_id": 37214,
        "meta_element_set_no": 999,
        "meta_rev_at_epoch": 78310,
        "meta_bstar": 8.2388e-05,
        "meta_mean_motion_dot": 1.14e-06,
        "meta_mean_motion_ddot": 0,
        "tle_line1": "1 37214U 10059A   25361.17730541  .00000114  00000+0  82388-4 0  9995",
        "tle_line2": "2 37214  98.9888  41.2538 0021412 316.1912 131.8401 14.14794382783105"
      },
      "geometry": {
        "type": "Point",
        "coordinates": [
          -135.37265951165693,
          18.71791894225068
        ]
      }
    },
    {
      "type": "Feature",
      "properties": {
        "norad_id": 37849,
        "name": "SUOMI NPP",
        "group": "weather",
        "lat": -69.945444084369,
        "lon": 93.64015727062235,
        "alt_km": 835.9278623318887,
        "timestamp": "2025-12-27T11:23:19.520426+00:00",
        "meta_object_name": "SUOMI NPP",
        "meta_object_id": "2011-061A",
        "meta_epoch": "2025-12-26T22:21:51.604128",
        "meta_mean_motion": 14.19518423,
        "meta_eccentricity": 0.0002548,
        "meta_inclination": 98.7791,
        "meta_ra_of_asc_node": 298.1468,
        "meta_arg_of_pericenter": 95.8793,
        "meta_mean_anomaly": 264.2673,
        "meta_ephemeris_type": 0,
        "meta_classification_type": "U",
        "meta_norad_cat_id": 37849,
        "meta_element_set_no": 999,
        "meta_rev_at_epoch": 73400,
        "meta_bstar": 8.5992e-05,
        "meta_mean_motion_dot": 1.37e-06,
        "meta_mean_motion_ddot": 0,
        "tle_line1": "1 37849U 11061A   25360.93184727  .00000137  00000+0  85992-4 0  9994",
        "tle_line2": "2 37849  98.7791 298.1468 0002548  95.8793 264.2673 14.19518423734004"
      },
      "geometry": {
        "type": "Point",
        "coordinates": [
          93.64015727062235,
          -69.945444084369
        ]
      }
    },
    {
      "type": "Feature",
      "properties": {
        "norad_id": 38552,
        "name": "METEOSAT-10 (MSG-3)",
        "group": "weather",
        "lat": -1.8546383868983165,
        "lon": -92.80165953986956,
        "alt_km": 35784.321662241586,
        "timestamp": "2025-12-27T11:23:19.520439+00:00",
        "meta_object_name": "METEOSAT-10 (MSG-3)",
        "meta_object_id": "2012-035B",
        "meta_epoch": "2025-12-26T23:18:23.522112",
        "meta_mean_motion": 1.0026664,
        "meta_eccentricity": 0.0001553,
        "meta_inclination": 4.2601,
        "meta_ra_of_asc_node": 61.6826,
        "meta_arg_of_pericenter": 264.1949,
        "meta_mean_anomaly": 119.6815,
        "meta_ephemeris_type": 0,
        "meta_classification_type": "U",
        "meta_norad_cat_id": 38552,
        "meta_element_set_no": 999,
        "meta_rev_at_epoch": 4913,
        "meta_bstar": 0,
        "meta_mean_motion_dot": 1.4e-07,
        "meta_mean_motion_ddot": 0,
        "tle_line1": "1 38552U 12035B   25360.97110558  .00000014  00000+0  00000+0 0  9999",
        "tle_line2": "2 38552   4.2601  61.6826 0001553 264.1949 119.6815  1.00266640 49139"
      },
      "geometry": {
        "type": "Point",
        "coordinates": [
          -92.80165953986956,
          -1.8546383868983165
        ]
      }
    },
    {
      "type": "Feature",
      "properties": {
        "norad_id": 38771,
        "name": "METOP-B",
        "group": "weather",
        "lat": -24.18711549350916,
        "lon": -132.75128417368742,
        "alt_km": 826.0811214202349,
        "timestamp": "2025-12-27T11:23:19.520450+00:00",
        "meta_object_name": "METOP-B",
        "meta_object_id": "2012-049A",
        "meta_epoch": "2025-12-27T03:40:22.452096",
        "meta_mean_motion": 14.21413883,
        "meta_eccentricity": 0.0003311,
        "meta_inclination": 98.6779,
        "meta_ra_of_asc_node": 50.8661,
        "meta_arg_of_pericenter": 114.4225,
        "meta_mean_anomaly": 245.7298,
        "meta_ephemeris_type": 0,
        "meta_classification_type": "U",
        "meta_norad_cat_id": 38771,
        "meta_element_set_no": 999,
        "meta_rev_at_epoch": 68882,
        "meta_bstar": 9.0481e-05,
        "meta_mean_motion_dot": 1.54e-06,
        "meta_mean_motion_ddot": 0,
        "tle_line1": "1 38771U 12049A   25361.15303764  .00000154  00000+0  90481-4 0  9993",
        "tle_line2": "2 38771  98.6779  50.8661 0003311 114.4225 245.7298 14.21413883688821"
      },
      "geometry": {
        "type": "Point",
        "coordinates": [
          -132.75128417368742,
          -24.18711549350916
        ]
      }
    },
    {
      "type": "Feature",
      "properties": {
        "norad_id": 39216,
        "name": "INSAT-3D",
        "group": "weather",
        "lat": -1.096207596195614,
        "lon": 36.606759135159045,
        "alt_km": 35793.34301324195,
        "timestamp": "2025-12-27T11:23:19.520463+00:00",
        "meta_object_name": "INSAT-3D",
        "meta_object_id": "2013-038B",
        "meta_epoch": "2025-12-27T01:00:38.527776",
        "meta_mean_motion": 1.00273019,
        "meta_eccentricity": 0.000198,
        "meta_inclination": 1.4799,
        "meta_ra_of_asc_node": 84.8333,
        "meta_arg_of_pericenter": 159.3491,
        "meta_mean_anomaly": 356.3116,
        "meta_ephemeris_type": 0,
        "meta_classification_type": "U",
        "meta_norad_cat_id": 39216,
        "meta_element_set_no": 999,
        "meta_rev_at_epoch": 4535,
        "meta_bstar": 0,
        "meta_mean_motion_dot": -3.17e-06,
        "meta_mean_motion_ddot": 0,
        "tle_line1": "1 39216U 13038B   25361.04211259 -.00000317  00000+0  00000+0 0  9997",
        "tle_line2": "2 39216   1.4799  84.8333 0001980 159.3491 356.3116  1.00273019 45357"
      },
      "geometry": {
        "type": "Point",
        "coordinates": [
          36.606759135159045,
          -1.096207596195614
        ]
      }
    },
    {
      "type": "Feature",
      "properties": {
        "norad_id": 39260,
        "name": "FENGYUN 3C",
        "group": "weather",
        "lat": 31.07059362407286,
        "lon": 163.59181582196226,
        "alt_km": 827.3250309622908,
        "timestamp": "2025-12-27T11:23:19.520474+00:00",
        "meta_object_name": "FENGYUN 3C",
        "meta_object_id": "2013-052A",
        "meta_epoch": "2025-12-27T05:36:05.128416",
        "meta_mean_motion": 14.1570075,
        "meta_eccentricity": 0.0015089,
        "meta_inclination": 98.4781,
        "meta_ra_of_asc_node": 338.2062,
        "meta_arg_of_pericenter": 154.4015,
        "meta_mean_anomaly": 205.791,
        "meta_ephemeris_type": 0,
        "meta_classification_type": "U",
        "meta_norad_cat_id": 39260,
        "meta_element_set_no": 999,
        "meta_rev_at_epoch": 63423,
        "meta_bstar": 8.4474e-05,
        "meta_mean_motion_dot": 1.25e-06,
        "meta_mean_motion_ddot": 0,
        "tle_line1": "1 39260U 13052A   25361.23339269  .00000125  00000+0  84474-4 0  9993",
        "tle_line2": "2 39260  98.4781 338.2062 0015089 154.4015 205.7910 14.15700750634238"
      },
      "geometry": {
        "type": "Point",
        "coordinates": [
          163.59181582196226,
          31.07059362407286
        ]
      }
    }
  ]
}